SENTINEL-6              
1 46984U 20086A   24259.64356009 -.00000057  00000+0  17552-4 0  9998
2 46984  66.0443  23.3904 0007794 269.1809  90.8313 12.80931547178414
